[{"OBJECT_NAME":"ONEWEB-0150","OBJECT_ID":"2021-025F","EPOCH":"2025-12-03T07:50:09.656160","MEAN_MOTION":13.13470184,"ECCENTRICITY":0.00015704,"INCLINATION":87.8994,"RA_OF_ASC_NODE":359.1335,"ARG_OF_PERICENTER":97.2315,"MEAN_ANOMALY":262.8993,"EPHEMERIS_TYPE":0,"CLASSIFICATION_TYPE":"U","NORAD_CAT_ID":48047,"ELEMENT_SET_NO":999,"REV_AT_EPOCH":22783,"BSTAR":-0.0010091879,"MEAN_MOTION_DOT":-3.56e-6,"MEAN_MOTION_DDOT":0},{"OBJECT_NAME":"ONEWEB-0107","OBJECT_ID":"2021-025G","EPOCH":"2025-12-03T02:23:31.394688","MEAN_MOTION":13.13470436,"ECCENTRICITY":0.00015545,"INCLINATION":87.8991,"RA_OF_ASC_NODE":359.1753,"ARG_OF_PERICENTER":86.7317,"MEAN_ANOMALY":273.399,"EPHEMERIS_TYPE":0,"CLASSIFICATION_TYPE":"U","NORAD_CAT_ID":48048,"ELEMENT_SET_NO":999,"REV_AT_EPOCH":22778,"BSTAR":-0.00073138737,"MEAN_MOTION_DOT":-2.54e-6,"MEAN_MOTION_DDOT":0},{"OBJECT_NAME":"ONEWEB-0101","OBJECT_ID":"2021-025H","EPOCH":"2025-12-03T03:19:35.457312","MEAN_MOTION":13.13470501,"ECCENTRICITY":0.00017563,"INCLINATION":87.8984,"RA_OF_ASC_NODE":359.2016,"ARG_OF_PERICENTER":87.6666,"MEAN_ANOMALY":272.4664,"EPHEMERIS_TYPE":0,"CLASSIFICATION_TYPE":"U","NORAD_CAT_ID":48049,"ELEMENT_SET_NO":999,"REV_AT_EPOCH":22776,"BSTAR":0.00085962943,"MEAN_MOTION_DOT":3.27e-6,"MEAN_MOTION_DDOT":0},{"OBJECT_NAME":"ONEWEB-0113","OBJECT_ID":"2021-025J","EPOCH":"2025-12-03T01:58:49.413504","MEAN_MOTION":13.13984364,"ECCENTRICITY":0.00018081,"INCLINATION":87.899,"RA_OF_ASC_NODE":359.1429,"ARG_OF_PERICENTER":101.3913,"MEAN_ANOMALY":258.742,"EPHEMERIS_TYPE":0,"CLASSIFICATION_TYPE":"U","NORAD_CAT_ID":48050,"ELEMENT_SET_NO":999,"REV_AT_EPOCH":22785,"BSTAR":-0.00025840758,"MEAN_MOTION_DOT":-8.2e-7,"MEAN_MOTION_DDOT":0},{"OBJECT_NAME":"ONEWEB-0112","OBJECT_ID":"2021-025K","EPOCH":"2025-12-03T07:59:55.138848","MEAN_MOTION":13.13471128,"ECCENTRICITY":0.00016964,"INCLINATION":87.8993,"RA_OF_ASC_NODE":359.126,"ARG_OF_PERICENTER":94.6084,"MEAN_ANOMALY":265.5239,"EPHEMERIS_TYPE":0,"CLASSIFICATION_TYPE":"U","NORAD_CAT_ID":48051,"ELEMENT_SET_NO":999,"REV_AT_EPOCH":22788,"BSTAR":-0.00051753459,"MEAN_MOTION_DOT":-1.76e-6,"MEAN_MOTION_DDOT":0},{"OBJECT_NAME":"ONEWEB-0156","OBJECT_ID":"2021-025L","EPOCH":"2025-12-03T02:43:01.077024","MEAN_MOTION":13.13470704,"ECCENTRICITY":0.00016247,"INCLINATION":87.8991,"RA_OF_ASC_NODE":359.1813,"ARG_OF_PERICENTER":92.0442,"MEAN_ANOMALY":268.0873,"EPHEMERIS_TYPE":0,"CLASSIFICATION_TYPE":"U","NORAD_CAT_ID":48052,"ELEMENT_SET_NO":999,"REV_AT_EPOCH":22783,"BSTAR":2.1555293e-5,"MEAN_MOTION_DOT":2.1e-7,"MEAN_MOTION_DDOT":0},{"OBJECT_NAME":"ONEWEB-0161","OBJECT_ID":"2021-025M","EPOCH":"2025-12-03T07:35:32.425728","MEAN_MOTION":13.13469278,"ECCENTRICITY":0.00015903,"INCLINATION":87.8984,"RA_OF_ASC_NODE":359.1568,"ARG_OF_PERICENTER":90.035,"MEAN_ANOMALY":270.0961,"EPHEMERIS_TYPE":0,"CLASSIFICATION_TYPE":"U","NORAD_CAT_ID":48053,"ELEMENT_SET_NO":999,"REV_AT_EPOCH":22779,"BSTAR":-0.0005945994,"MEAN_MOTION_DOT":-2.04e-6,"MEAN_MOTION_DDOT":0},{"OBJECT_NAME":"ONEWEB-0158","OBJECT_ID":"2021-025N","EPOCH":"2025-12-03T08:26:44.263680","MEAN_MOTION":13.13470518,"ECCENTRICITY":0.00020776,"INCLINATION":87.899,"RA_OF_ASC_NODE":359.1334,"ARG_OF_PERICENTER":93.5181,"MEAN_ANOMALY":266.6186,"EPHEMERIS_TYPE":0,"CLASSIFICATION_TYPE":"U","NORAD_CAT_ID":48054,"ELEMENT_SET_NO":999,"REV_AT_EPOCH":22792,"BSTAR":0.00060710227,"MEAN_MOTION_DOT":2.34e-6,"MEAN_MOTION_DDOT":0},{"OBJECT_NAME":"ONEWEB-0157","OBJECT_ID":"2021-025P","EPOCH":"2025-12-03T07:13:36.454368","MEAN_MOTION":13.13469021,"ECCENTRICITY":0.00015024,"INCLINATION":87.8989,"RA_OF_ASC_NODE":359.15,"ARG_OF_PERICENTER":81.881,"MEAN_ANOMALY":278.2489,"EPHEMERIS_TYPE":0,"CLASSIFICATION_TYPE":"U","NORAD_CAT_ID":48055,"ELEMENT_SET_NO":999,"REV_AT_EPOCH":22785,"BSTAR":0.00035902285,"MEAN_MOTION_DOT":1.44e-6,"MEAN_MOTION_DDOT":0},{"OBJECT_NAME":"ONEWEB-0162","OBJECT_ID":"2021-025Q","EPOCH":"2025-12-03T08:28:58.427328","MEAN_MOTION":13.13471755,"ECCENTRICITY":0.00015982,"INCLINATION":87.8993,"RA_OF_ASC_NODE":359.1414,"ARG_OF_PERICENTER":96.1652,"MEAN_ANOMALY":263.9659,"EPHEMERIS_TYPE":0,"CLASSIFICATION_TYPE":"U","NORAD_CAT_ID":48056,"ELEMENT_SET_NO":999,"REV_AT_EPOCH":22783,"BSTAR":0.00070672625,"MEAN_MOTION_DOT":2.71e-6,"MEAN_MOTION_DDOT":0},{"OBJECT_NAME":"ONEWEB-0155","OBJECT_ID":"2021-025R","EPOCH":"2025-12-03T08:38:55.119552","MEAN_MOTION":13.13471692,"ECCENTRICITY":0.00017831,"INCLINATION":87.8989,"RA_OF_ASC_NODE":359.145,"ARG_OF_PERICENTER":87.3188,"MEAN_ANOMALY":272.8145,"EPHEMERIS_TYPE":0,"CLASSIFICATION_TYPE":"U","NORAD_CAT_ID":48057,"ELEMENT_SET_NO":999,"REV_AT_EPOCH":22797,"BSTAR":0.00077397665,"MEAN_MOTION_DOT":2.95e-6,"MEAN_MOTION_DDOT":0},{"OBJECT_NAME":"ONEWEB-0149","OBJECT_ID":"2021-025S","EPOCH":"2025-12-03T01:51:49.547520","MEAN_MOTION":13.13470584,"ECCENTRICITY":0.00015795,"INCLINATION":87.8989,"RA_OF_ASC_NODE":359.1953,"ARG_OF_PERICENTER":98.5611,"MEAN_ANOMALY":261.5697,"EPHEMERIS_TYPE":0,"CLASSIFICATION_TYPE":"U","NORAD_CAT_ID":48058,"ELEMENT_SET_NO":999,"REV_AT_EPOCH":22774,"BSTAR":-5.0745175e-5,"MEAN_MOTION_DOT":-6.0e-8,"MEAN_MOTION_DDOT":0},{"OBJECT_NAME":"ONEWEB-0148","OBJECT_ID":"2021-025T","EPOCH":"2025-12-03T08:16:59.047968","MEAN_MOTION":13.13470713,"ECCENTRICITY":0.00012146,"INCLINATION":87.8982,"RA_OF_ASC_NODE":359.1621,"ARG_OF_PERICENTER":105.2673,"MEAN_ANOMALY":254.8591,"EPHEMERIS_TYPE":0,"CLASSIFICATION_TYPE":"U","NORAD_CAT_ID":48059,"ELEMENT_SET_NO":999,"REV_AT_EPOCH":22790,"BSTAR":7.5487901e-5,"MEAN_MOTION_DOT":4.0e-7,"MEAN_MOTION_DDOT":0},{"OBJECT_NAME":"ONEWEB-0160","OBJECT_ID":"2021-025U","EPOCH":"2025-12-03T03:12:16.973856","MEAN_MOTION":13.134706,"ECCENTRICITY":0.00024492,"INCLINATION":87.8982,"RA_OF_ASC_NODE":359.2016,"ARG_OF_PERICENTER":103.9372,"MEAN_ANOMALY":256.2029,"EPHEMERIS_TYPE":0,"CLASSIFICATION_TYPE":"U","NORAD_CAT_ID":48060,"ELEMENT_SET_NO":999,"REV_AT_EPOCH":22782,"BSTAR":0.00096143119,"MEAN_MOTION_DOT":3.64e-6,"MEAN_MOTION_DDOT":0},{"OBJECT_NAME":"ONEWEB-0163","OBJECT_ID":"2021-025V","EPOCH":"2025-12-03T02:50:18.773376","MEAN_MOTION":13.13468197,"ECCENTRICITY":0.00015858,"INCLINATION":87.899,"RA_OF_ASC_NODE":359.1901,"ARG_OF_PERICENTER":84.2398,"MEAN_ANOMALY":275.8912,"EPHEMERIS_TYPE":0,"CLASSIFICATION_TYPE":"U","NORAD_CAT_ID":48061,"ELEMENT_SET_NO":999,"REV_AT_EPOCH":22794,"BSTAR":0.00025447933,"MEAN_MOTION_DOT":1.06e-6,"MEAN_MOTION_DDOT":0},{"OBJECT_NAME":"ONEWEB-0159","OBJECT_ID":"2021-025W","EPOCH":"2025-12-03T08:07:14.182176","MEAN_MOTION":13.13470804,"ECCENTRICITY":0.00015363,"INCLINATION":87.8992,"RA_OF_ASC_NODE":359.13,"ARG_OF_PERICENTER":90.6136,"MEAN_ANOMALY":269.5169,"EPHEMERIS_TYPE":0,"CLASSIFICATION_TYPE":"U","NORAD_CAT_ID":48062,"ELEMENT_SET_NO":999,"REV_AT_EPOCH":22789,"BSTAR":-0.00049973816,"MEAN_MOTION_DOT":-1.7e-6,"MEAN_MOTION_DDOT":0}]
